[{"OBJECT_NAME":"STARLINK-31397","OBJECT_ID":"2024-074G","EPOCH":"2026-01-25T22:37:18.710688","MEAN_MOTION":15.2757404,"ECCENTRICITY":9.876e-5,"INCLINATION":43.002,"RA_OF_ASC_NODE":225.2036,"ARG_OF_PERICENTER":256.498,"MEAN_ANOMALY":103.5762,"EPHEMERIS_TYPE":0,"CLASSIFICATION_TYPE":"U","NORAD_CAT_ID":59540,"ELEMENT_SET_NO":999,"REV_AT_EPOCH":9947,"BSTAR":-7.1256989e-5,"MEAN_MOTION_DOT":-2.222e-5,"MEAN_MOTION_DDOT":0},{"OBJECT_NAME":"STARLINK-31481","OBJECT_ID":"2024-074H","EPOCH":"2026-01-24T21:47:15.717984","MEAN_MOTION":15.27549435,"ECCENTRICITY":9.89e-5,"INCLINATION":43.0004,"RA_OF_ASC_NODE":230.3363,"ARG_OF_PERICENTER":264.6857,"MEAN_ANOMALY":95.3882,"EPHEMERIS_TYPE":0,"CLASSIFICATION_TYPE":"U","NORAD_CAT_ID":59541,"ELEMENT_SET_NO":999,"REV_AT_EPOCH":9932,"BSTAR":0.00029893,"MEAN_MOTION_DOT":7.965e-5,"MEAN_MOTION_DDOT":0},{"OBJECT_NAME":"STARLINK-31540","OBJECT_ID":"2024-074J","EPOCH":"2026-01-25T20:11:20.075712","MEAN_MOTION":15.27586092,"ECCENTRICITY":0.00011405,"INCLINATION":42.9971,"RA_OF_ASC_NODE":225.2982,"ARG_OF_PERICENTER":252.206,"MEAN_ANOMALY":107.8668,"EPHEMERIS_TYPE":0,"CLASSIFICATION_TYPE":"U","NORAD_CAT_ID":59542,"ELEMENT_SET_NO":999,"REV_AT_EPOCH":9946,"BSTAR":-8.2723531e-5,"MEAN_MOTION_DOT":-2.538e-5,"MEAN_MOTION_DDOT":0},{"OBJECT_NAME":"STARLINK-31574","OBJECT_ID":"2024-074K","EPOCH":"2026-01-25T22:22:30.260352","MEAN_MOTION":15.27578542,"ECCENTRICITY":0.0001175,"INCLINATION":43.0015,"RA_OF_ASC_NODE":225.1259,"ARG_OF_PERICENTER":285.4731,"MEAN_ANOMALY":74.5991,"EPHEMERIS_TYPE":0,"CLASSIFICATION_TYPE":"U","NORAD_CAT_ID":59543,"ELEMENT_SET_NO":999,"REV_AT_EPOCH":9947,"BSTAR":-7.1196198e-5,"MEAN_MOTION_DOT":-2.221e-5,"MEAN_MOTION_DDOT":0},{"OBJECT_NAME":"STARLINK-31556","OBJECT_ID":"2024-074L","EPOCH":"2026-01-25T22:26:12.928704","MEAN_MOTION":15.2757837,"ECCENTRICITY":9.599e-5,"INCLINATION":43.0013,"RA_OF_ASC_NODE":225.1462,"ARG_OF_PERICENTER":227.6325,"MEAN_ANOMALY":132.4445,"EPHEMERIS_TYPE":0,"CLASSIFICATION_TYPE":"U","NORAD_CAT_ID":59544,"ELEMENT_SET_NO":999,"REV_AT_EPOCH":9947,"BSTAR":-2.0594924e-5,"MEAN_MOTION_DOT":-8.29e-6,"MEAN_MOTION_DDOT":0},{"OBJECT_NAME":"STARLINK-31582","OBJECT_ID":"2024-074M","EPOCH":"2026-01-25T22:42:48.742272","MEAN_MOTION":15.27602966,"ECCENTRICITY":0.00027629,"INCLINATION":43.0075,"RA_OF_ASC_NODE":225.2285,"ARG_OF_PERICENTER":262.1923,"MEAN_ANOMALY":97.8615,"EPHEMERIS_TYPE":0,"CLASSIFICATION_TYPE":"U","NORAD_CAT_ID":59545,"ELEMENT_SET_NO":999,"REV_AT_EPOCH":9947,"BSTAR":0.00012757524,"MEAN_MOTION_DOT":3.252e-5,"MEAN_MOTION_DDOT":0},{"OBJECT_NAME":"STARLINK-31519","OBJECT_ID":"2024-074N","EPOCH":"2026-01-25T23:02:59.977824","MEAN_MOTION":15.27585395,"ECCENTRICITY":0.00015484,"INCLINATION":42.9988,"RA_OF_ASC_NODE":224.4735,"ARG_OF_PERICENTER":266.956,"MEAN_ANOMALY":93.1115,"EPHEMERIS_TYPE":0,"CLASSIFICATION_TYPE":"U","NORAD_CAT_ID":59546,"ELEMENT_SET_NO":999,"REV_AT_EPOCH":9948,"BSTAR":0.00027587331,"MEAN_MOTION_DOT":7.338e-5,"MEAN_MOTION_DDOT":0},{"OBJECT_NAME":"STARLINK-31736","OBJECT_ID":"2024-074P","EPOCH":"2026-01-25T14:14:36.881088","MEAN_MOTION":15.2757952,"ECCENTRICITY":0.0001001,"INCLINATION":43.0016,"RA_OF_ASC_NODE":219.9535,"ARG_OF_PERICENTER":240.9004,"MEAN_ANOMALY":119.1748,"EPHEMERIS_TYPE":0,"CLASSIFICATION_TYPE":"U","NORAD_CAT_ID":59547,"ELEMENT_SET_NO":999,"REV_AT_EPOCH":9950,"BSTAR":-2.4853e-5,"MEAN_MOTION_DOT":-9.46e-6,"MEAN_MOTION_DDOT":0},{"OBJECT_NAME":"STARLINK-31675","OBJECT_ID":"2024-074Q","EPOCH":"2026-01-25T21:51:03.180672","MEAN_MOTION":15.27588573,"ECCENTRICITY":8.297e-5,"INCLINATION":42.9979,"RA_OF_ASC_NODE":224.9566,"ARG_OF_PERICENTER":259.0179,"MEAN_ANOMALY":101.0579,"EPHEMERIS_TYPE":0,"CLASSIFICATION_TYPE":"U","NORAD_CAT_ID":59548,"ELEMENT_SET_NO":999,"REV_AT_EPOCH":9947,"BSTAR":-2.0760484e-5,"MEAN_MOTION_DOT":-8.33e-6,"MEAN_MOTION_DDOT":0},{"OBJECT_NAME":"STARLINK-31722","OBJECT_ID":"2024-074R","EPOCH":"2026-01-25T21:23:17.800800","MEAN_MOTION":15.27597354,"ECCENTRICITY":5.403e-5,"INCLINATION":42.9993,"RA_OF_ASC_NODE":224.8156,"ARG_OF_PERICENTER":257.3654,"MEAN_ANOMALY":102.7137,"EPHEMERIS_TYPE":0,"CLASSIFICATION_TYPE":"U","NORAD_CAT_ID":59549,"ELEMENT_SET_NO":999,"REV_AT_EPOCH":9947,"BSTAR":-0.00017365477,"MEAN_MOTION_DOT":-5.04e-5,"MEAN_MOTION_DDOT":0},{"OBJECT_NAME":"STARLINK-31741","OBJECT_ID":"2024-074S","EPOCH":"2026-01-25T20:00:14.531328","MEAN_MOTION":15.27585146,"ECCENTRICITY":0.00011969,"INCLINATION":42.9992,"RA_OF_ASC_NODE":225.2399,"ARG_OF_PERICENTER":259.0393,"MEAN_ANOMALY":101.0324,"EPHEMERIS_TYPE":0,"CLASSIFICATION_TYPE":"U","NORAD_CAT_ID":59550,"ELEMENT_SET_NO":999,"REV_AT_EPOCH":9946,"BSTAR":-7.4000521e-5,"MEAN_MOTION_DOT":-2.298e-5,"MEAN_MOTION_DDOT":0},{"OBJECT_NAME":"STARLINK-31699","OBJECT_ID":"2024-074T","EPOCH":"2026-01-25T21:54:44.537472","MEAN_MOTION":15.27577131,"ECCENTRICITY":0.00010757,"INCLINATION":42.9974,"RA_OF_ASC_NODE":224.975,"ARG_OF_PERICENTER":271.283,"MEAN_ANOMALY":88.7899,"EPHEMERIS_TYPE":0,"CLASSIFICATION_TYPE":"U","NORAD_CAT_ID":59551,"ELEMENT_SET_NO":999,"REV_AT_EPOCH":9947,"BSTAR":-5.3273536e-5,"MEAN_MOTION_DOT":-1.727e-5,"MEAN_MOTION_DDOT":0},{"OBJECT_NAME":"STARLINK-31750","OBJECT_ID":"2024-074U","EPOCH":"2026-01-25T14:20:37.237344","MEAN_MOTION":15.27589232,"ECCENTRICITY":0.0001108,"INCLINATION":42.9998,"RA_OF_ASC_NODE":226.9082,"ARG_OF_PERICENTER":276.2075,"MEAN_ANOMALY":83.865,"EPHEMERIS_TYPE":0,"CLASSIFICATION_TYPE":"U","NORAD_CAT_ID":59552,"ELEMENT_SET_NO":999,"REV_AT_EPOCH":9942,"BSTAR":-9.8347e-7,"MEAN_MOTION_DOT":-2.89e-6,"MEAN_MOTION_DDOT":0},{"OBJECT_NAME":"STARLINK-31723","OBJECT_ID":"2024-074V","EPOCH":"2026-01-25T14:15:03.779136","MEAN_MOTION":15.27574487,"ECCENTRICITY":0.0001514,"INCLINATION":42.9996,"RA_OF_ASC_NODE":226.8814,"ARG_OF_PERICENTER":282.8609,"MEAN_ANOMALY":77.2074,"EPHEMERIS_TYPE":0,"CLASSIFICATION_TYPE":"U","NORAD_CAT_ID":59553,"ELEMENT_SET_NO":999,"REV_AT_EPOCH":9942,"BSTAR":-8.2172e-6,"MEAN_MOTION_DOT":-4.88e-6,"MEAN_MOTION_DDOT":0},{"OBJECT_NAME":"STARLINK-31724","OBJECT_ID":"2024-074W","EPOCH":"2026-01-25T12:43:52.285728","MEAN_MOTION":15.27520582,"ECCENTRICITY":9.143e-5,"INCLINATION":42.9993,"RA_OF_ASC_NODE":191.225,"ARG_OF_PERICENTER":272.5286,"MEAN_ANOMALY":87.5461,"EPHEMERIS_TYPE":0,"CLASSIFICATION_TYPE":"U","NORAD_CAT_ID":59554,"ELEMENT_SET_NO":999,"REV_AT_EPOCH":9982,"BSTAR":0.001018071,"MEAN_MOTION_DOT":0.00027808,"MEAN_MOTION_DDOT":0},{"OBJECT_NAME":"STARLINK-31730","OBJECT_ID":"2024-074X","EPOCH":"2026-01-25T14:57:39.313152","MEAN_MOTION":15.2749362,"ECCENTRICITY":6.25e-5,"INCLINATION":43.0002,"RA_OF_ASC_NODE":227.1037,"ARG_OF_PERICENTER":230.1544,"MEAN_ANOMALY":129.9253,"EPHEMERIS_TYPE":0,"CLASSIFICATION_TYPE":"U","NORAD_CAT_ID":59555,"ELEMENT_SET_NO":999,"REV_AT_EPOCH":9942,"BSTAR":0.00066533,"MEAN_MOTION_DOT":0.00018043,"MEAN_MOTION_DDOT":0}]
