STARLINK-31397          
1 59540U 24074G   26025.94257767 -.00002222  00000+0 -71257-4 0  9997
2 59540  43.0020 225.2036 0000987 256.4980 103.5762 15.27574040 99470
STARLINK-31481          
1 59541U 24074H   26024.90782081  .00007965  00000+0  29893-3 0  9990
2 59541  43.0004 230.3363 0000989 264.6857  95.3882 15.27549435 99324
STARLINK-31540          
1 59542U 24074J   26025.84120458 -.00002538  00000+0 -82724-4 0  9995
2 59542  42.9971 225.2982 0001140 252.2060 107.8668 15.27586092 99461
STARLINK-31574          
1 59543U 24074K   26025.93229468 -.00002221  00000+0 -71196-4 0  9997
2 59543  43.0015 225.1259 0001175 285.4731  74.5991 15.27578542 99471
STARLINK-31556          
1 59544U 24074L   26025.93487186 -.00000829  00000+0 -20595-4 0  9990
2 59544  43.0013 225.1462 0000959 227.6325 132.4445 15.27578370 99479
STARLINK-31582          
1 59545U 24074M   26025.94639748  .00003252  00000+0  12758-3 0  9997
2 59545  43.0075 225.2285 0002762 262.1923  97.8615 15.27602966 99476
STARLINK-31519          
1 59546U 24074N   26025.96041641  .00007338  00000+0  27587-3 0  9994
2 59546  42.9988 224.4735 0001548 266.9560  93.1115 15.27585395 99480
STARLINK-31736          
1 59547U 24074P   26025.59348242 -.00000946  00000+0 -24853-4 0  9995
2 59547  43.0016 219.9535 0001001 240.9004 119.1748 15.27579520 99508
STARLINK-31675          
1 59548U 24074Q   26025.91045348 -.00000833  00000+0 -20760-4 0  9991
2 59548  42.9979 224.9566 0000829 259.0179 101.0579 15.27588573 99472
STARLINK-31722          
1 59549U 24074R   26025.89117825 -.00005040  00000+0 -17365-3 0  9990
2 59549  42.9993 224.8156 0000540 257.3654 102.7137 15.27597354 99477
STARLINK-31741          
1 59550U 24074S   26025.83350152 -.00002298  00000+0 -74001-4 0  9991
2 59550  42.9992 225.2399 0001196 259.0393 101.0324 15.27585146 99464
STARLINK-31699          
1 59551U 24074T   26025.91301548 -.00001727  00000+0 -53274-4 0  9991
2 59551  42.9974 224.9750 0001075 271.2830  88.7899 15.27577131 99474
STARLINK-31750          
1 59552U 24074U   26025.59765321 -.00000289  00000+0 -98347-6 0  9993
2 59552  42.9998 226.9082 0001108 276.2075  83.8650 15.27589232 99425
STARLINK-31723          
1 59553U 24074V   26025.59379374 -.00000488  00000+0 -82172-5 0  9992
2 59553  42.9996 226.8814 0001514 282.8609  77.2074 15.27574487 99426
STARLINK-31724          
1 59554U 24074W   26025.53046627  .00027808  00000+0  10181-2 0  9990
2 59554  42.9993 191.2250 0000914 272.5286  87.5461 15.27520582 99828
STARLINK-31730          
1 59555U 24074X   26025.62337168  .00018043  00000+0  66533-3 0  9998
2 59555  43.0002 227.1037 0000625 230.1544 129.9253 15.27493620 99428
